IRIDIUM 36              
1 24967U 97056C   24298.22633018  .00001312  00000+0  43507-3 0  9993
2 24967  86.3915 272.0801 0002528  85.8312 274.3175 14.37142703418325
IRIDIUM 39              
1 25042U 97069D   24298.49184574  .00001779  00000+0  46811-3 0  9997
2 25042  86.3881 312.2016 0018794  20.8527 339.3439 14.48496129415098
IRIDIUM 38              
1 25043U 97069E   24298.53982328  .00001088  00000+0  35620-3 0  9995
2 25043  86.3959 332.3254 0003567 119.4693 240.6861 14.37633163412351
IRIDIUM 42              
1 25077U 97077A   24298.53799695  .00000984  00000+0  33297-3 0  9996
2 25077  86.3976 338.2036 0002465 108.4831 251.6633 14.35905724407376
IRIDIUM 44              
1 25078U 97077B   24298.15327858  .00001062  00000+0  33281-3 0  9994
2 25078  86.3934 320.9188 0004091  87.6365 272.5302 14.39751348409769
IRIDIUM 45              
1 25104U 97082A   24297.69726201  .00022644  00000+0  10765-2 0  9993
2 25104  86.3676 161.6277 0146084 129.3810 232.0475 15.10014115416202
IRIDIUM 24              
1 25105U 97082B   24298.21919788  .00001091  00000+0  32916-3 0  9993
2 25105  86.3971 180.2891 0012820 129.8214 230.4116 14.41589684409468
IRIDIUM 51              
1 25262U 98018A   24298.36933901  .00037690  00000+0  14053-2 0  9991
2 25262  86.3965 170.7190 0128767  64.1652 297.2805 15.19733053411192
